
# Worst residual: 91.49 km
# MJD 60080.000000 (2023 May 16  0:00)
2008-051A = TR93D0F = IBEX = NORAD 33401
1 33401U 08051A   23136.49919926  .00000000  00000-0  00000-0 0 19754
2 33401 048.0951 033.4986 5613427 040.6118 004.0943 00.10526195    00

# Worst residual: 20.09 km
# MJD 60081.000000 (2023 May 17  0:00)
2008-051A = TR93D0F = IBEX = NORAD 33401
1 33401U 08051A   23137.49919926  .00000000  00000-0  00000-0 0 19755
2 33401 048.1289 033.4327 5556831 040.7119 042.8192 00.10724405    01

# Worst residual: 3.28 km
# MJD 60082.000000 (2023 May 18  0:00)
2008-051A = TR93D0F = IBEX = NORAD 33401
1 33401U 08051A   23138.49919926  .00000000  00000-0  00000-0 0 19756
2 33401 048.1153 033.4057 5556067 040.6402 081.5716 00.10754984    03

# Worst residual: 7.15 km
# MJD 60083.000000 (2023 May 19  0:00)
2008-051A = TR93D0F = IBEX = NORAD 33401
1 33401U 08051A   23139.49919926  .00000000  00000-0  00000-0 0 19757
2 33401 048.0844 033.3630 5559468 040.7894 119.9592 00.10746499    09

# Worst residual: 6.96 km
# MJD 60084.000000 (2023 May 20  0:00)
2008-051A = TR93D0F = IBEX = NORAD 33401
1 33401U 08051A   23140.49919926  .00000000  00000-0  00000-0 0 19759
2 33401 048.0737 033.3197 5559973 040.9851 158.1955 00.10737146    01

# Worst residual: 6.49 km
# MJD 60085.000000 (2023 May 21  0:00)
2008-051A = TR93D0F = IBEX = NORAD 33401
1 33401U 08051A   23141.49919926  .00000000  00000-0  00000-0 0 19750
2 33401 048.0893 033.2991 5558627 041.1593 196.4003 00.10733522    09

# Worst residual: 6.24 km
# MJD 60086.000000 (2023 May 22  0:00)
2008-051A = TR93D0F = IBEX = NORAD 33401
1 33401U 08051A   23142.49919926  .00000000  00000-0  00000-0 0 19751
2 33401 048.1144 033.3033 5555574 041.2860 234.6679 00.10734311    04

# Worst residual: 3.93 km
# MJD 60087.000000 (2023 May 23  0:00)
2008-051A = TR93D0F = IBEX = NORAD 33401
1 33401U 08051A   23143.49919926  .00000000  00000-0  00000-0 0 19752
2 33401 048.1297 033.3092 5550657 041.3251 273.1117 00.10730176    00

# Worst residual: 18.32 km
# MJD 60088.000000 (2023 May 24  0:00)
2008-051A = TR93D0F = IBEX = NORAD 33401
1 33401U 08051A   23144.49919926  .00000000  00000-0  00000-0 0 19753
2 33401 048.1306 033.2802 5551622 041.1973 311.8347 00.10690582    02

# Worst residual: 61.02 km
# MJD 60089.000000 (2023 May 25  0:00)
2008-051A = TR93D0F = IBEX = NORAD 33401
1 33401U 08051A   23145.49919926  .00000000  00000-0  00000-0 0 19754
2 33401 048.1511 033.1927 5595015 041.2588 350.4001 00.10550976    02

# Worst residual: 55.72 km
# MJD 60090.000000 (2023 May 26  0:00)
2008-051A = TR93D0F = IBEX = NORAD 33401
1 33401U 08051A   23146.49919926  .00000000  00000-0  00000-0 0 19755
2 33401 048.1837 033.2197 5580092 042.0229 028.1339 00.10578859    06

# Worst residual: 21.32 km
# MJD 60091.000000 (2023 May 27  0:00)
2008-051A = TR93D0F = IBEX = NORAD 33401
1 33401U 08051A   23147.49919926  .00000000  00000-0  00000-0 0 19756
2 33401 048.1986 033.2040 5550011 041.6101 067.3059 00.10734177    01

# Worst residual: 11.07 km
# MJD 60092.000000 (2023 May 28  0:00)
2008-051A = TR93D0F = IBEX = NORAD 33401
1 33401U 08051A   23148.49919926  .00000000  00000-0  00000-0 0 19757
2 33401 048.2216 033.1764 5553164 041.3391 106.5425 00.10792849    03

# Worst residual: 7.95 km
# MJD 60093.000000 (2023 May 29  0:00)
2008-051A = TR93D0F = IBEX = NORAD 33401
1 33401U 08051A   23149.49919926  .00000000  00000-0  00000-0 0 19758
2 33401 048.2266 033.1455 5555665 041.2590 145.6785 00.10811192    09

# Worst residual: 11.24 km
# MJD 60094.000000 (2023 May 30  0:00)
2008-051A = TR93D0F = IBEX = NORAD 33401
1 33401U 08051A   23150.49919926  .00000000  00000-0  00000-0 0 19750
2 33401 048.2173 033.1029 5552898 041.2008 184.8908 00.10812049    06

# Worst residual: 20.10 km
# MJD 60095.000000 (2023 May 31  0:00)
2008-051A = TR93D0F = IBEX = NORAD 33401
1 33401U 08051A   23151.49919926  .00000000  00000-0  00000-0 0 19751
2 33401 048.2106 033.0615 5549521 041.0384 224.3338 00.10795912    02

# Worst residual: 38.02 km
# MJD 60096.000000 (2023 Jun  1  0:00)
2008-051A = TR93D0F = IBEX = NORAD 33401
1 33401U 08051A   23152.49919926  .00000000  00000-0  00000-0 0 19752
2 33401 048.2086 033.0352 5551122 040.6379 264.1360 00.10737295    03

# Worst residual: 76.18 km
# MJD 60097.000000 (2023 Jun  2  0:00)
2008-051A = TR93D0F = IBEX = NORAD 33401
1 33401U 08051A   23153.49919926  .00000000  00000-0  00000-0 0 19753
2 33401 048.1956 033.0304 5581114 039.7930 304.3570 00.10554338    06

# Worst residual: 304.44 km
# MJD 60098.000000 (2023 Jun  3  0:00)
2008-051A = TR93D0F = IBEX = NORAD 33401
1 33401U 08051A   23154.49919926  .00000000  00000-0  00000-0 0 19754
2 33401 048.1285 032.9384 5757352 039.1495 344.0472 00.09961645    09

# Worst residual: 242.58 km
# MJD 60099.000000 (2023 Jun  4  0:00)
2008-051A = TR93D0F = IBEX = NORAD 33401
1 33401U 08051A   23155.49919926  .00000000  00000-0  00000-0 0 19755
2 33401 048.1839 032.9101 5765952 042.5643 018.7923 00.09950413    06

# Worst residual: 94.49 km
# MJD 60100.000000 (2023 Jun  5  0:00)
2008-051A = TR93D0F = IBEX = NORAD 33401
1 33401U 08051A   23156.49919926  .00000000  00000-0  00000-0 0 19756
2 33401 048.1873 033.0259 5585076 041.9589 058.4457 00.10561585    02

# Worst residual: 35.24 km
# MJD 60101.000000 (2023 Jun  6  0:00)
2008-051A = TR93D0F = IBEX = NORAD 33401
1 33401U 08051A   23157.49919926  .00000000  00000-0  00000-0 0 19757
2 33401 048.1798 033.0234 5557176 041.1053 098.7555 00.10753692    07

# Worst residual: 22.45 km
# MJD 60102.000000 (2023 Jun  7  0:00)
2008-051A = TR93D0F = IBEX = NORAD 33401
1 33401U 08051A   23158.49919926  .00000000  00000-0  00000-0 0 19758
2 33401 048.2136 033.0140 5561017 040.6942 138.5989 00.10815991    05

# Worst residual: 13.05 km
# MJD 60103.000000 (2023 Jun  8  0:00)
2008-051A = TR93D0F = IBEX = NORAD 33401
1 33401U 08051A   23159.49919926  .00000000  00000-0  00000-0 0 19759
2 33401 048.2643 033.0266 5573665 040.5131 178.0509 00.10839077    06

# Worst residual: 8.10 km
# MJD 60104.000000 (2023 Jun  9  0:00)
2008-051A = TR93D0F = IBEX = NORAD 33401
1 33401U 08051A   23160.49919926  .00000000  00000-0  00000-0 0 19751
2 33401 048.2987 033.0398 5585753 040.4665 217.2634 00.10847271    05

# Worst residual: 11.72 km
# MJD 60105.000000 (2023 Jun 10  0:00)
2008-051A = TR93D0F = IBEX = NORAD 33401
1 33401U 08051A   23161.49919926  .00000000  00000-0  00000-0 0 19752
2 33401 048.3099 033.0292 5592233 040.4172 256.5046 00.10837659    09

# Worst residual: 31.19 km
# MJD 60106.000000 (2023 Jun 11  0:00)
2008-051A = TR93D0F = IBEX = NORAD 33401
1 33401U 08051A   23162.49919926  .00000000  00000-0  00000-0 0 19753
2 33401 048.3091 033.0002 5600899 040.1241 296.0687 00.10770681    03
